start=new Date('2022-07-03T00:00:00.000Z').valueOf();
sats=[{"TLE_LINE1":"1 44954U 20001AS  22183.52621799  .00001138  00000-0  95306-4 0  9996","MEAN_ANOMALY":"298.8301","ARG_OF_PERICENTER":"61.2826","MEAN_MOTION_DDOT":"0.0000000000000","APOAPSIS":"548.185","MEAN_MOTION":"15.06394262","MEAN_ELEMENT_THEORY":"SGP4","LAUNCH_DATE":"2020-01-07","FILE":"3506647","REV_AT_EPOCH":"13745","RA_OF_ASC_NODE":"229.7797","ELEMENT_SET_NO":"999","ECCENTRICITY":"0.00013780","CENTER_NAME":"EARTH","OBJECT_NAME":"STARLINK-1066","NORAD_CAT_ID":"44954","RCS_SIZE":"LARGE","BSTAR":"0.00009530600000","GP_ID":"207265403","COUNTRY_CODE":"US","PERIOD":"95.593","OBJECT_ID":"2020-001AS","EPHEMERIS_TYPE":"0","SITE":"AFETR","TIME_SYSTEM":"UTC","DECAY_DATE":null,"INCLINATION":"53.0554","SEMIMAJOR_AXIS":"6925.366","REF_FRAME":"TEME","CLASSIFICATION_TYPE":"U","OBJECT_TYPE":"PAYLOAD","TLE_LINE2":"2 44954  53.0554 229.7797 0001378  61.2826 298.8301 15.06394262137456","EPOCH":"2022-07-02T12:37:45.234336","MEAN_MOTION_DOT":"0.00001138","PERIAPSIS":"546.277"},{"TIME_SYSTEM":"UTC","SITE":"AFETR","EPHEMERIS_TYPE":"0","OBJECT_ID":"2020-001AT","PERIOD":"95.592","COUNTRY_CODE":"US","GP_ID":"207265154","PERIAPSIS":"546.014","MEAN_MOTION_DOT":"0.00002859","EPOCH":"2022-07-02T12:48:21.636864","TLE_LINE2":"2 44955  53.0528 229.7523 0001715  50.6108 309.5033 15.06403708137453","OBJECT_TYPE":"PAYLOAD","CLASSIFICATION_TYPE":"U","REF_FRAME":"TEME","SEMIMAJOR_AXIS":"6925.337","INCLINATION":"53.0528","DECAY_DATE":null,"MEAN_ELEMENT_THEORY":"SGP4","LAUNCH_DATE":"2020-01-07","MEAN_MOTION":"15.06403708","MEAN_MOTION_DDOT":"0.0000000000000","APOAPSIS":"548.390","ARG_OF_PERICENTER":"50.6108","MEAN_ANOMALY":"309.5033","TLE_LINE1":"1 44955U 20001AT  22183.53358376  .00002859  00000-0  21073-3 0  9996","BSTAR":"0.00021073000000","RCS_SIZE":"LARGE","OBJECT_NAME":"STARLINK-1069","NORAD_CAT_ID":"44955","ELEMENT_SET_NO":"999","CENTER_NAME":"EARTH","ECCENTRICITY":"0.00017150","REV_AT_EPOCH":"13745","FILE":"3506647","RA_OF_ASC_NODE":"229.7523"},{"ELEMENT_SET_NO":"999","ECCENTRICITY":"0.00012860","CENTER_NAME":"EARTH","FILE":"3506647","RA_OF_ASC_NODE":"229.7596","REV_AT_EPOCH":"13751","RCS_SIZE":"LARGE","OBJECT_NAME":"STARLINK-1070","NORAD_CAT_ID":"44956","BSTAR":"-0.00003855100000","ARG_OF_PERICENTER":"79.5826","TLE_LINE1":"1 44956U 20001AU  22183.52894181 -.00000855  00000-0 -38551-4 0  9991","MEAN_ANOMALY":"280.5308","MEAN_MOTION_DDOT":"0.0000000000000","APOAPSIS":"548.119","LAUNCH_DATE":"2020-01-07","MEAN_ELEMENT_THEORY":"SGP4","MEAN_MOTION":"15.06395102","INCLINATION":"53.0527","DECAY_DATE":null,"SEMIMAJOR_AXIS":"6925.364","CLASSIFICATION_TYPE":"U","REF_FRAME":"TEME","OBJECT_TYPE":"PAYLOAD","PERIAPSIS":"546.338","TLE_LINE2":"2 44956  53.0527 229.7596 0001286  79.5826 280.5308 15.06395102137511","EPOCH":"2022-07-02T12:41:40.572384","MEAN_MOTION_DOT":"-0.00000855","PERIOD":"95.592","GP_ID":"207263902","COUNTRY_CODE":"US","EPHEMERIS_TYPE":"0","OBJECT_ID":"2020-001AU","TIME_SYSTEM":"UTC","SITE":"AFETR"},{"SEMIMAJOR_AXIS":"6925.362","CLASSIFICATION_TYPE":"U","REF_FRAME":"TEME","INCLINATION":"53.0531","DECAY_DATE":null,"PERIAPSIS":"546.346","TLE_LINE2":"2 44957  53.0531 230.2384 0001272  70.7640 289.3487 15.06395633137492","MEAN_MOTION_DOT":"0.00001186","EPOCH":"2022-07-02T10:07:45.868224","OBJECT_TYPE":"PAYLOAD","PERIOD":"95.592","COUNTRY_CODE":"US","GP_ID":"207264652","TIME_SYSTEM":"UTC","SITE":"AFETR","OBJECT_ID":"2020-001AV","EPHEMERIS_TYPE":"0","RCS_SIZE":"LARGE","NORAD_CAT_ID":"44957","OBJECT_NAME":"STARLINK-1074","ECCENTRICITY":"0.00012720","ELEMENT_SET_NO":"999","CENTER_NAME":"EARTH","FILE":"3506647","REV_AT_EPOCH":"13749","RA_OF_ASC_NODE":"230.2384","BSTAR":"0.00009849500000","ARG_OF_PERICENTER":"70.7640","TLE_LINE1":"1 44957U 20001AV  22183.42205866  .00001186  00000-0  98495-4 0  9996","MEAN_ANOMALY":"289.3487","LAUNCH_DATE":"2020-01-07","MEAN_ELEMENT_THEORY":"SGP4","MEAN_MOTION":"15.06395633","MEAN_MOTION_DDOT":"0.0000000000000","APOAPSIS":"548.108"},{"ARG_OF_PERICENTER":"48.5031","TLE_LINE1":"1 44959U 20001AX  22183.83580958  .00000505  00000-0  52817-4 0  9993","MEAN_ANOMALY":"311.6102","MEAN_MOTION_DDOT":"0.0000000000000","APOAPSIS":"548.359","LAUNCH_DATE":"2020-01-07","MEAN_ELEMENT_THEORY":"SGP4","MEAN_MOTION":"15.06407524","ELEMENT_SET_NO":"999","ECCENTRICITY":"0.00016880","CENTER_NAME":"EARTH","FILE":"3506765","REV_AT_EPOCH":"13755","RA_OF_ASC_NODE":"228.3875","RCS_SIZE":"LARGE","NORAD_CAT_ID":"44959","OBJECT_NAME":"STARLINK-1076","BSTAR":"0.00005281700000","PERIOD":"95.592","GP_ID":"207273242","COUNTRY_CODE":"US","EPHEMERIS_TYPE":"0","OBJECT_ID":"2020-001AX","TIME_SYSTEM":"UTC","SITE":"AFETR","INCLINATION":"53.0534","DECAY_DATE":null,"SEMIMAJOR_AXIS":"6925.325","CLASSIFICATION_TYPE":"U","REF_FRAME":"TEME","OBJECT_TYPE":"PAYLOAD","PERIAPSIS":"546.022","TLE_LINE2":"2 44959  53.0534 228.3875 0001688  48.5031 311.6102 15.06407524137551","MEAN_MOTION_DOT":"0.00000505","EPOCH":"2022-07-02T20:03:33.947712"},{"APOAPSIS":"547.987","MEAN_MOTION_DDOT":"0.0000000000000","MEAN_ELEMENT_THEORY":"SGP4","LAUNCH_DATE":"2020-01-07","MEAN_MOTION":"15.06408285","ARG_OF_PERICENTER":"75.0002","MEAN_ANOMALY":"285.1115","TLE_LINE1":"1 44961U 20001AZ  22183.84318535  .00001095  00000-0  92393-4 0  9995","BSTAR":"0.00009239300000","ELEMENT_SET_NO":"999","CENTER_NAME":"EARTH","ECCENTRICITY":"0.00011530","FILE":"3506757","RA_OF_ASC_NODE":"228.3701","REV_AT_EPOCH":"13756","RCS_SIZE":"LARGE","NORAD_CAT_ID":"44961","OBJECT_NAME":"STARLINK-1080","OBJECT_ID":"2020-001AZ","EPHEMERIS_TYPE":"0","TIME_SYSTEM":"UTC","SITE":"AFETR","PERIOD":"95.592","COUNTRY_CODE":"US","GP_ID":"207272956","OBJECT_TYPE":"PAYLOAD","PERIAPSIS":"546.390","MEAN_MOTION_DOT":"0.00001095","EPOCH":"2022-07-02T20:14:11.214240","TLE_LINE2":"2 44961  53.0533 228.3701 0001153  75.0002 285.1115 15.06408285137566","INCLINATION":"53.0533","DECAY_DATE":null,"CLASSIFICATION_TYPE":"U","REF_FRAME":"TEME","SEMIMAJOR_AXIS":"6925.323"},{"MEAN_MOTION":"15.15831781","MEAN_ELEMENT_THEORY":"SGP4","LAUNCH_DATE":"2020-01-07","APOAPSIS":"519.670","MEAN_MOTION_DDOT":"0.0000000000000","TLE_LINE1":"1 44963U 20001BB  22183.81276167  .00010914  00000-0  57926-3 0  9990","MEAN_ANOMALY":"333.8136","ARG_OF_PERICENTER":"26.2945","BSTAR":"0.00057926000000","OBJECT_NAME":"STARLINK-1085","NORAD_CAT_ID":"44963","RCS_SIZE":"LARGE","FILE":"3506758","REV_AT_EPOCH":"13843","RA_OF_ASC_NODE":"215.0370","ELEMENT_SET_NO":"999","ECCENTRICITY":"0.00017590","CENTER_NAME":"EARTH","SITE":"AFETR","TIME_SYSTEM":"UTC","EPHEMERIS_TYPE":"0","OBJECT_ID":"2020-001BB","GP_ID":"207273266","COUNTRY_CODE":"US","PERIOD":"94.997","TLE_LINE2":"2 44963  52.9939 215.0370 0001759  26.2945 333.8136 15.15831781138439","MEAN_MOTION_DOT":"0.00010914","EPOCH":"2022-07-02T19:30:22.608288","PERIAPSIS":"517.243","OBJECT_TYPE":"PAYLOAD","SEMIMAJOR_AXIS":"6896.591","REF_FRAME":"TEME","CLASSIFICATION_TYPE":"U","DECAY_DATE":null,"INCLINATION":"52.9939"},{"BSTAR":"0.00008434900000","RCS_SIZE":"LARGE","NORAD_CAT_ID":"44964","OBJECT_NAME":"STARLINK-1086","ELEMENT_SET_NO":"999","CENTER_NAME":"EARTH","ECCENTRICITY":"0.00012640","RA_OF_ASC_NODE":"229.7071","FILE":"3506647","REV_AT_EPOCH":"13751","MEAN_ELEMENT_THEORY":"SGP4","LAUNCH_DATE":"2020-01-07","MEAN_MOTION":"15.06402559","APOAPSIS":"548.081","MEAN_MOTION_DDOT":"0.0000000000000","ARG_OF_PERICENTER":"77.4181","MEAN_ANOMALY":"282.6949","TLE_LINE1":"1 44964U 20001BC  22183.54095914  .00000975  00000-0  84349-4 0  9996","PERIAPSIS":"546.330","MEAN_MOTION_DOT":"0.00000975","EPOCH":"2022-07-02T12:58:58.869696","TLE_LINE2":"2 44964  53.0539 229.7071 0001264  77.4181 282.6949 15.06402559137517","OBJECT_TYPE":"PAYLOAD","REF_FRAME":"TEME","CLASSIFICATION_TYPE":"U","SEMIMAJOR_AXIS":"6925.341","INCLINATION":"53.0539","DECAY_DATE":null,"TIME_SYSTEM":"UTC","SITE":"AFETR","EPHEMERIS_TYPE":"0","OBJECT_ID":"2020-001BC","PERIOD":"95.592","COUNTRY_CODE":"US","GP_ID":"207264153"},{"TLE_LINE1":"1 44966U 20001BE  22183.82844201  .00001273  00000-0  10430-3 0  9991","MEAN_ANOMALY":"286.8170","ARG_OF_PERICENTER":"73.2950","MEAN_MOTION":"15.06410465","LAUNCH_DATE":"2020-01-07","MEAN_ELEMENT_THEORY":"SGP4","MEAN_MOTION_DDOT":"0.0000000000000","APOAPSIS":"548.009","OBJECT_NAME":"STARLINK-1088","NORAD_CAT_ID":"44966","RCS_SIZE":"LARGE","FILE":"3506758","REV_AT_EPOCH":"13755","RA_OF_ASC_NODE":"228.4370","ECCENTRICITY":"0.00011950","ELEMENT_SET_NO":"999","CENTER_NAME":"EARTH","BSTAR":"0.00010430000000","COUNTRY_CODE":"US","GP_ID":"207272967","PERIOD":"95.591","SITE":"AFETR","TIME_SYSTEM":"UTC","OBJECT_ID":"2020-001BE","EPHEMERIS_TYPE":"0","SEMIMAJOR_AXIS":"6925.316","CLASSIFICATION_TYPE":"U","REF_FRAME":"TEME","DECAY_DATE":null,"INCLINATION":"53.0549","TLE_LINE2":"2 44966  53.0549 228.4370 0001195  73.2950 286.8170 15.06410465137550","MEAN_MOTION_DOT":"0.00001273","EPOCH":"2022-07-02T19:52:57.389664","PERIAPSIS":"546.354","OBJECT_TYPE":"PAYLOAD"},{"COUNTRY_CODE":"US","GP_ID":"207265155","PERIOD":"95.593","OBJECT_ID":"2020-001BF","EPHEMERIS_TYPE":"0","SITE":"AFETR","TIME_SYSTEM":"UTC","DECAY_DATE":null,"INCLINATION":"53.0530","SEMIMAJOR_AXIS":"6925.373","CLASSIFICATION_TYPE":"U","REF_FRAME":"TEME","OBJECT_TYPE":"PAYLOAD","TLE_LINE2":"2 44967  53.0530 229.8162 0001387  64.8740 295.2392 15.06392077137515","MEAN_MOTION_DOT":"0.00000856","EPOCH":"2022-07-02T12:27:07.471008","PERIAPSIS":"546.277","TLE_LINE1":"1 44967U 20001BF  22183.51883647  .00000856  00000-0  76341-4 0  9995","MEAN_ANOMALY":"295.2392","ARG_OF_PERICENTER":"64.8740","APOAPSIS":"548.198","MEAN_MOTION_DDOT":"0.0000000000000","MEAN_MOTION":"15.06392077","MEAN_ELEMENT_THEORY":"SGP4","LAUNCH_DATE":"2020-01-07","FILE":"3506647","RA_OF_ASC_NODE":"229.8162","REV_AT_EPOCH":"13751","CENTER_NAME":"EARTH","ELEMENT_SET_NO":"999","ECCENTRICITY":"0.00013870","NORAD_CAT_ID":"44967","OBJECT_NAME":"STARLINK-1089","RCS_SIZE":"LARGE","BSTAR":"0.00007634100000"}];
